      2.10          N: GNSS NAV DATA                        RINEX VERSION / TYPE
fic2rin                                 04/11/2021 00:17:25 PGM / RUN BY / DATE
                                                            END OF HEADER
23 21  4 10  4  0  0.0 1.142863184214e-04-1.932676241267e-12 0.000000000000e+00
    6.300000000000e+01-2.437500000000e+01 4.980207445630e-09-2.072795419289e+00
   -1.229345798492e-06 1.098800334148e-03 3.222376108170e-06 5.153644302368e+03
    5.328000000000e+05-6.519258022308e-08-1.551130853020e+00-3.166496753693e-08
    9.632678582813e-01 3.191875000000e+02 2.559315956365e+00-8.425708107420e-09
   -1.425059359442e-10 1.000000000000e+00 2.152000000000e+03 0.000000000000e+00
    2.400000000000e+00 0.000000000000e+00-8.381903171539e-09 5.750000000000e+02
    5.256000000000e+05 4.000000000000e+00
18 21  4 10  4  0  0.0 3.516073338687e-04 1.136868377216e-13 0.000000000000e+00
    3.900000000000e+01 7.762500000000e+01 4.464471677451e-09-1.466834498219e+00
    3.859400749207e-06 1.270519685932e-03 8.242204785347e-06 5.153670822144e+03
    5.328000000000e+05 2.235174179077e-08-2.550688462824e+00 1.303851604462e-08
    9.676966730678e-01 2.257812500000e+02 2.963574400838e+00-8.049621013311e-09
    5.143071372424e-10 1.000000000000e+00 2.152000000000e+03 0.000000000000e+00
    2.400000000000e+00 0.000000000000e+00-8.381903171539e-09 2.950000000000e+02
    5.256000000000e+05 4.000000000000e+00
19 21  4 10  4  0  0.0-1.495890319347e-05 5.002220859751e-12 0.000000000000e+00
    1.820000000000e+02-4.540625000000e+01 3.781943247402e-09 2.994709610247e+00
   -2.495944499969e-06 9.159784764051e-03 1.165457069874e-05 5.153633562088e+03
    5.328000000000e+05 1.192092895508e-07 2.769092449004e+00 3.911554813385e-08
    9.811455086487e-01 1.607812500000e+02 1.806741370762e+00-7.519956093499e-09
   -1.782217093638e-10 1.000000000000e+00 2.152000000000e+03 0.000000000000e+00
    3.400000000000e+00 0.000000000000e+00-1.583248376846e-08 1.820000000000e+02
    5.256000000000e+05 4.000000000000e+00
26 21  4 10  3 59 44.0 7.007038220763e-05 5.229594535194e-12 0.000000000000e+00
    2.200000000000e+01-1.309375000000e+01 5.305578141483e-09 2.269988559164e+00
   -6.984919309616e-07 5.795372067951e-03 3.116205334663e-06 5.153779151917e+03
    5.327840000000e+05-9.872019290924e-08 1.573703572190e+00 1.117587089539e-08
    9.421211053428e-01 3.105000000000e+02 3.024750150242e-01-8.640717063406e-09
   -1.142904749427e-10 1.000000000000e+00 2.152000000000e+03 0.000000000000e+00
    2.400000000000e+00 0.000000000000e+00 6.984919309616e-09 2.200000000000e+01
    5.257800000000e+05 4.000000000000e+00
13 21  4 10  3 59 44.0 1.180903054774e-04 4.547473508865e-12 0.000000000000e+00
    2.500000000000e+01-4.475000000000e+01 4.213032632577e-09-9.294030763401e-02
   -2.238899469376e-06 4.911203752272e-03 1.136958599091e-05 5.153687295914e+03
    5.327840000000e+05-2.048909664154e-08-3.469002748860e-01 4.470348358154e-08
    9.684440076944e-01 1.613125000000e+02 9.939689760090e-01-7.924615806343e-09
   -3.414427938915e-10 1.000000000000e+00 2.152000000000e+03 0.000000000000e+00
    2.400000000000e+00 0.000000000000e+00-1.117587089539e-08 2.500000000000e+01
    5.326500000000e+05 4.000000000000e+00
13 21  4 10  5 59 44.0 1.181233674288e-04 4.547473508865e-12 0.000000000000e+00
    2.600000000000e+01-4.931250000000e+01 4.236247885300e-09 9.570736319927e-01
   -2.384185791016e-06 4.911811091006e-03 1.196376979351e-05 5.153688955307e+03
    5.399840000000e+05-4.097819328308e-08-3.469573842820e-01 6.332993507385e-08
    9.684415646213e-01 1.535312500000e+02 9.941256369802e-01-7.918901282596e-09
   -3.278707999920e-10 1.000000000000e+00 2.152000000000e+03 0.000000000000e+00
    2.400000000000e+00 0.000000000000e+00-1.117587089539e-08 2.600000000000e+01
    5.328000000000e+05 4.000000000000e+00
 2 21  4 10  6  0  0.0-5.942876450717e-04-3.524291969370e-12 0.000000000000e+00
    6.700000000000e+01 6.131250000000e+01 4.585190991609e-09-3.725742370182e-01
    3.054738044739e-06 2.025822864380e-02 9.972602128983e-06 5.153649942398e+03
    5.400000000000e+05-2.719461917877e-07-2.645987670270e+00 6.519258022308e-08
    9.627828687539e-01 1.966875000000e+02-1.525765480291e+00-8.405350116571e-09
    6.114540409437e-10 1.000000000000e+00 2.152000000000e+03 0.000000000000e+00
    2.400000000000e+00 0.000000000000e+00-1.769512891769e-08 6.700000000000e+01
    5.328000000000e+05 4.000000000000e+00
 1 21  4 10  6  0  0.0 7.200995460153e-04-9.777068044059e-12 0.000000000000e+00
    8.500000000000e+01 7.365625000000e+01 4.104456681381e-09-6.304048953286e-01
    4.021450877190e-06 1.067878364120e-02 8.499249815941e-06 5.153684858322e+03
    5.400000000000e+05 7.450580596924e-08-2.563185083564e+00 1.601874828339e-07
    9.840228081112e-01 2.306562500000e+02 8.277096968141e-01-8.022834183247e-09
    5.507372261304e-10 1.000000000000e+00 2.152000000000e+03 0.000000000000e+00
    2.400000000000e+00 0.000000000000e+00 4.656612873077e-09 8.500000000000e+01
    5.328000000000e+05 4.000000000000e+00
 3 21  4 10  6  0  0.0-1.326040364802e-04-1.068656274583e-11 0.000000000000e+00
    2.100000000000e+01-2.793750000000e+01 4.949849038224e-09-1.717361944710e+00
   -1.404434442520e-06 3.366377321072e-03 3.332272171974e-06 5.153613203049e+03
    5.400000000000e+05 3.166496753693e-08-1.525044274844e+00 1.862645149231e-08
    9.684021082577e-01 3.202187500000e+02 8.269597406383e-01-8.395706857747e-09
   -4.607334771129e-11 1.000000000000e+00 2.152000000000e+03 0.000000000000e+00
    2.400000000000e+00 0.000000000000e+00 1.862645149231e-09 2.100000000000e+01
    5.328000000000e+05 4.000000000000e+00
 8 21  4 10  6  0  0.0-1.695938408375e-05-1.477928890381e-12 0.000000000000e+00
    1.200000000000e+01-4.625000000000e+01 4.092670476153e-09 1.590148510811e+00
   -2.361834049225e-06 6.338077597320e-03 1.087971031666e-05 5.153584167480e+03
    5.400000000000e+05 1.303851604462e-08 2.646603993268e+00 7.078051567078e-08
    9.678468913479e-01 1.732500000000e+02 2.315357079345e-02-7.831397637718e-09
   -3.657295198168e-10 1.000000000000e+00 2.152000000000e+03 0.000000000000e+00
    2.400000000000e+00 0.000000000000e+00 5.122274160385e-09 1.200000000000e+01
    5.328000000000e+05 4.000000000000e+00
 5 21  4 10  6  0  0.0-3.865920007229e-05-1.136868377216e-12 0.000000000000e+00
    8.100000000000e+01-1.434375000000e+01 5.243432695733e-09 2.129201202874e+00
   -8.046627044678e-07 6.006283918396e-03 2.970919013023e-06 5.153845638275e+03
    5.400000000000e+05-9.126961231232e-08-1.561282094237e+00-9.313225746155e-08
    9.553553542481e-01 3.214375000000e+02 8.817183457597e-01-8.508568701753e-09
   -1.000041655749e-11 1.000000000000e+00 2.152000000000e+03 0.000000000000e+00
    2.400000000000e+00 0.000000000000e+00-1.117587089539e-08 8.100000000000e+01
    5.328000000000e+05 4.000000000000e+00
 6 21  4 10  6  0  0.0 6.167218089104e-06 2.728484105319e-12 0.000000000000e+00
    6.000000000000e+01 6.925000000000e+01 4.030167872669e-09-3.766264586552e-01
    3.332272171974e-06 2.295840182342e-03 9.195879101753e-06 5.153741933823e+03
    5.400000000000e+05 7.450580596924e-09-2.571436940704e+00-3.539025783539e-08
    9.834981442454e-01 2.113437500000e+02-9.990997647212e-01-7.879256774100e-09
    5.857386840816e-10 1.000000000000e+00 2.152000000000e+03 0.000000000000e+00
    2.400000000000e+00 0.000000000000e+00 3.725290298462e-09 6.000000000000e+01
    5.328000000000e+05 4.000000000000e+00
 7 21  4 10  6  0  0.0 1.174397766590e-04 1.170974428533e-11 0.000000000000e+00
    8.700000000000e+01 8.028125000000e+01 4.671623163285e-09-1.216441297868e+00
    4.118308424950e-06 1.472298055887e-02 8.655712008476e-06 5.153589931488e+03
    5.400000000000e+05 4.284083843231e-07 5.774189548572e-01 1.043081283569e-07
    9.521854258193e-01 2.072812500000e+02-2.342732342057e+00-8.134981711784e-09
    3.132273328900e-10 1.000000000000e+00 2.152000000000e+03 0.000000000000e+00
    2.400000000000e+00 0.000000000000e+00-1.117587089539e-08 8.700000000000e+01
    5.328000000000e+05 4.000000000000e+00
 4 21  4 10  6  0  0.0-1.910254359245e-04-1.932676241267e-12 0.000000000000e+00
    1.670000000000e+02-4.768750000000e+01 4.399826127562e-09 1.024988910399e+00
   -2.354383468628e-06 1.176910242066e-03 1.156702637672e-05 5.153770446777e+03
    5.400000000000e+05 4.842877388000e-08-4.443601933171e-01-5.215406417847e-08
    9.606853309601e-01 1.523437500000e+02-2.958832862442e+00-7.989975671701e-09
   -4.068026592493e-10 1.000000000000e+00 2.152000000000e+03 0.000000000000e+00
    2.400000000000e+00 0.000000000000e+00-4.190951585770e-09 4.230000000000e+02
    5.328000000000e+05 4.000000000000e+00
10 21  4 10  6  0  0.0-9.891716763377e-05-7.844391802792e-12 0.000000000000e+00
    9.200000000000e+01-2.425000000000e+01 4.854130765459e-09-2.685651582363e+00
   -1.316890120506e-06 6.579396198504e-03 3.311783075333e-06 5.153668533325e+03
    5.400000000000e+05 1.303851604462e-08-1.527949897863e+00-2.048909664154e-07
    9.682885814260e-01 3.210312500000e+02-2.563814730820e+00-8.325703941845e-09
   -7.607459738377e-11 1.000000000000e+00 2.152000000000e+03 0.000000000000e+00
    2.400000000000e+00 0.000000000000e+00 2.328306436539e-09 9.200000000000e+01
    5.328000000000e+05 4.000000000000e+00
 9 21  4 10  6  0  0.0-3.378042019904e-04-2.842170943040e-12 0.000000000000e+00
    6.300000000000e+01-6.040625000000e+01 4.549475218190e-09 2.028354968486e+00
   -3.185123205185e-06 1.912081032060e-03 1.106224954128e-05 5.153813911438e+03
    5.400000000000e+05 1.862645149231e-09-4.948039537479e-01-5.029141902924e-08
    9.534867002283e-01 1.565937500000e+02 1.836917795365e+00-8.018191132702e-09
   -4.457328522767e-10 1.000000000000e+00 2.152000000000e+03 0.000000000000e+00
    2.400000000000e+00 0.000000000000e+00 1.396983861923e-09 6.300000000000e+01
    5.328000000000e+05 4.000000000000e+00
